SAC-D
1 37673U 11024A   13344.43097245 +.00000000 +00000+0 +14296-4 6  9433
2 37673  98.0130 349.3474 0001781  82.2548 150.6582 14.72294667133999
